{"type": "FeatureCollection", "features": [ {"type": "Feature", "properties": {"norad_id": 66819, "name": "STARLINK-35989", "group": "last-30-days", "lat": -41.82009144643241, "lon": 123.44537082149803, "alt_km": 399.24203411679446, "timestamp": "2025-12-21T18:54:57.223918+00:00", "meta": {"OBJECT_NAME": "STARLINK-35989", "OBJECT_ID": "2025-278AE", "EPOCH": "2025-12-21T14:00:01.999872", "MEAN_MOTION": 15.57726821, "ECCENTRICITY": 0.00012449, "INCLINATION": 42.9995, "RA_OF_ASC_NODE": 198.4349, "ARG_OF_PERICENTER": 255.3106, "MEAN_ANOMALY": 317.1567, "EPHEMERIS_TYPE": 0, "CLASSIFICATION_TYPE": "U", "NORAD_CAT_ID": 66819, "ELEMENT_SET_NO": 999, "REV_AT_EPOCH": 438, "BSTAR": -0.029807627, "MEAN_MOTION_DOT": -0.01992789, "MEAN_MOTION_DDOT": 0}, "tle": {"line1": "1 66819U 25278AE  25355.58335648 -.01992789  00000+0 -29808-1 0  9990", "line2": "2 66819  42.9995 198.4349 0001244 255.3106 317.1567 15.57726821  4380"}}, "geometry": {"type": "Point", "coordinates": [123.44537082149803, -41.82009144643241]}}, {"type": "Feature", "properties": {"norad_id": 66820, "name": "KOMPSAT-7", "group": "last-30-days", "lat": -43.290266366983666, "lon": 114.2272057739165, "alt_km": 564.0518997110248, "timestamp": "2025-12-21T18:54:57.223931+00:00", "meta": {"OBJECT_NAME": "KOMPSAT-7", "OBJECT_ID": "2025-279A", "EPOCH": "2025-12-21T14:43:15.384864", "MEAN_MOTION": 15.00649834, "ECCENTRICITY": 0.00110253, "INCLINATION": 97.6444, "RA_OF_ASC_NODE": 301.3241, "ARG_OF_PERICENTER": 234.4274, "MEAN_ANOMALY": 125.5923, "EPHEMERIS_TYPE": 0, "CLASSIFICATION_TYPE": "U", "NORAD_CAT_ID": 66820, "ELEMENT_SET_NO": 999, "REV_AT_EPOCH": 298, "BSTAR": 0.00020207224, "MEAN_MOTION_DOT": 2.499e-05, "MEAN_MOTION_DDOT": 0}, "tle": {"line1": "1 66820U 25279A   25355.61337251  .00002499  00000+0  20207-3 0  9992", "line2": "2 66820  97.6444 301.3241 0011025 234.4274 125.5923 15.00649834  2983"}}, "geometry": {"type": "Point", "coordinates": [114.2272057739165, -43.290266366983666]}}, {"type": "Feature", "properties": {"norad_id": 66821, "name": "STARLINK-35966", "group": "last-30-days", "lat": 14.291522929468051, "lon": -11.690203771006358, "alt_km": 410.35994703268443, "timestamp": "2025-12-21T18:54:57.223941+00:00", "meta": {"OBJECT_NAME": "STARLINK-35966", "OBJECT_ID": "2025-280A", "EPOCH": "2025-12-21T14:00:01.999872", "MEAN_MOTION": 15.52499222, "ECCENTRICITY": 0.00033164, "INCLINATION": 70, "RA_OF_ASC_NODE": 174.1943, "ARG_OF_PERICENTER": 268.3922, "MEAN_ANOMALY": 191.9802, "EPHEMERIS_TYPE": 0, "CLASSIFICATION_TYPE": "U", "NORAD_CAT_ID": 66821, "ELEMENT_SET_NO": 999, "REV_AT_EPOCH": 431, "BSTAR": 0.00043908813, "MEAN_MOTION_DOT": 0.00026918, "MEAN_MOTION_DDOT": 0}, "tle": {"line1": "1 66821U 25280A   25355.58335648  .00026918  00000+0  43909-3 0  9995", "line2": "2 66821  70.0000 174.1943 0003316 268.3922 191.9802 15.52499222  4315"}}, "geometry": {"type": "Point", "coordinates": [-11.690203771006358, 14.291522929468051]}}, {"type": "Feature", "properties": {"norad_id": 66822, "name": "STARLINK-35958", "group": "last-30-days", "lat": 12.492955772248196, "lon": -10.997462645075442, "alt_km": 410.534173953527, "timestamp": "2025-12-21T18:54:57.223951+00:00", "meta": {"OBJECT_NAME": "STARLINK-35958", "OBJECT_ID": "2025-280B", "EPOCH": "2025-12-21T14:00:01.999872", "MEAN_MOTION": 15.52492117, "ECCENTRICITY": 0.0003344, "INCLINATION": 69.9997, "RA_OF_ASC_NODE": 174.1922, "ARG_OF_PERICENTER": 267.299, "MEAN_ANOMALY": 194.9983, "EPHEMERIS_TYPE": 0, "CLASSIFICATION_TYPE": "U", "NORAD_CAT_ID": 66822, "ELEMENT_SET_NO": 999, "REV_AT_EPOCH": 431, "BSTAR": 0.00055720755, "MEAN_MOTION_DOT": 0.00034227, "MEAN_MOTION_DDOT": 0}, "tle": {"line1": "1 66822U 25280B   25355.58335648  .00034227  00000+0  55721-3 0  9993", "line2": "2 66822  69.9997 174.1922 0003344 267.2990 194.9983 15.52492117  4318"}}, "geometry": {"type": "Point", "coordinates": [-10.997462645075442, 12.492955772248196]}}, {"type": "Feature", "properties": {"norad_id": 66823, "name": "STARLINK-35957", "group": "last-30-days", "lat": 10.691566741465866, "lon": -10.315132296597216, "alt_km": 410.72404061471025, "timestamp": "2025-12-21T18:54:57.223961+00:00", "meta": {"OBJECT_NAME": "STARLINK-35957", "OBJECT_ID": "2025-280C", "EPOCH": "2025-12-21T14:00:01.999872", "MEAN_MOTION": 15.52486194, "ECCENTRICITY": 0.00032533, "INCLINATION": 69.9997, "RA_OF_ASC_NODE": 174.1888, "ARG_OF_PERICENTER": 267.2522, "MEAN_ANOMALY": 196.9684, "EPHEMERIS_TYPE": 0, "CLASSIFICATION_TYPE": "U", "NORAD_CAT_ID": 66823, "ELEMENT_SET_NO": 999, "REV_AT_EPOCH": 431, "BSTAR": 0.00072778262, "MEAN_MOTION_DOT": 0.00044806, "MEAN_MOTION_DDOT": 0}, "tle": {"line1": "1 66823U 25280C   25355.58335648  .00044806  00000+0  72778-3 0  9999", "line2": "2 66823  69.9997 174.1888 0003253 267.2522 196.9684 15.52486194  4318"}}, "geometry": {"type": "Point", "coordinates": [-10.315132296597216, 10.691566741465866]}}, {"type": "Feature", "properties": {"norad_id": 66824, "name": "STARLINK-35896", "group": "last-30-days", "lat": 8.894729525372226, "lon": -9.641159499486301, "alt_km": 410.9426335385915, "timestamp": "2025-12-21T18:54:57.223970+00:00", "meta": {"OBJECT_NAME": "STARLINK-35896", "OBJECT_ID": "2025-280D", "EPOCH": "2025-12-21T14:00:01.999872", "MEAN_MOTION": 15.52490866, "ECCENTRICITY": 0.00032453, "INCLINATION": 69.9997, "RA_OF_ASC_NODE": 174.1874, "ARG_OF_PERICENTER": 267.984, "MEAN_ANOMALY": 198.1499, "EPHEMERIS_TYPE": 0, "CLASSIFICATION_TYPE": "U", "NORAD_CAT_ID": 66824, "ELEMENT_SET_NO": 999, "REV_AT_EPOCH": 431, "BSTAR": 0.00054254585, "MEAN_MOTION_DOT": 0.00033316, "MEAN_MOTION_DDOT": 0}, "tle": {"line1": "1 66824U 25280D   25355.58335648  .00033316  00000+0  54255-3 0  9994", "line2": "2 66824  69.9997 174.1874 0003245 267.9840 198.1499 15.52490866  4314"}}, "geometry": {"type": "Point", "coordinates": [-9.641159499486301, 8.894729525372226]}}, {"type": "Feature", "properties": {"norad_id": 66825, "name": "STARLINK-35476", "group": "last-30-days", "lat": 7.094544502675942, "lon": -8.974957566969096, "alt_km": 411.08531653715363, "timestamp": "2025-12-21T18:54:57.223980+00:00", "meta": {"OBJECT_NAME": "STARLINK-35476", "OBJECT_ID": "2025-280E", "EPOCH": "2025-12-21T14:00:01.999872", "MEAN_MOTION": 15.52486785, "ECCENTRICITY": 0.00032386, "INCLINATION": 69.9999, "RA_OF_ASC_NODE": 174.184, "ARG_OF_PERICENTER": 266.902, "MEAN_ANOMALY": 201.1505, "EPHEMERIS_TYPE": 0, "CLASSIFICATION_TYPE": "U", "NORAD_CAT_ID": 66825, "ELEMENT_SET_NO": 999, "REV_AT_EPOCH": 416, "BSTAR": 0.00075557157, "MEAN_MOTION_DOT": 0.00046534, "MEAN_MOTION_DDOT": 0}, "tle": {"line1": "1 66825U 25280E   25355.58335648  .00046534  00000+0  75557-3 0  9999", "line2": "2 66825  69.9999 174.1840 0003238 266.9020 201.1505 15.52486785  4162"}}, "geometry": {"type": "Point", "coordinates": [-8.974957566969096, 7.094544502675942]}}, {"type": "Feature", "properties": {"norad_id": 66826, "name": "STARLINK-35898", "group": "last-30-days", "lat": 5.297339452089129, "lon": -8.313565690259063, "alt_km": 411.3008772542671, "timestamp": "2025-12-21T18:54:57.223989+00:00", "meta": {"OBJECT_NAME": "STARLINK-35898", "OBJECT_ID": "2025-280F", "EPOCH": "2025-12-21T14:00:01.999872", "MEAN_MOTION": 15.52494646, "ECCENTRICITY": 0.00032664, "INCLINATION": 69.9999, "RA_OF_ASC_NODE": 174.1825, "ARG_OF_PERICENTER": 267.8666, "MEAN_ANOMALY": 202.0963, "EPHEMERIS_TYPE": 0, "CLASSIFICATION_TYPE": "U", "NORAD_CAT_ID": 66826, "ELEMENT_SET_NO": 999, "REV_AT_EPOCH": 431, "BSTAR": 0.00048780361, "MEAN_MOTION_DOT": 0.00029929, "MEAN_MOTION_DDOT": 0}, "tle": {"line1": "1 66826U 25280F   25355.58335648  .00029929  00000+0  48780-3 0  9997", "line2": "2 66826  69.9999 174.1825 0003266 267.8666 202.0963 15.52494646  4313"}}, "geometry": {"type": "Point", "coordinates": [-8.313565690259063, 5.297339452089129]}}, {"type": "Feature", "properties": {"norad_id": 66827, "name": "STARLINK-35959", "group": "last-30-days", "lat": 3.4967711081688773, "lon": -7.655543615810498, "alt_km": 411.4769322011871, "timestamp": "2025-12-21T18:54:57.223999+00:00", "meta": {"OBJECT_NAME": "STARLINK-35959", "OBJECT_ID": "2025-280G", "EPOCH": "2025-12-21T14:00:01.999872", "MEAN_MOTION": 15.52495764, "ECCENTRICITY": 0.00032303, "INCLINATION": 69.9999, "RA_OF_ASC_NODE": 174.1805, "ARG_OF_PERICENTER": 267.9005, "MEAN_ANOMALY": 203.9779, "EPHEMERIS_TYPE": 0, "CLASSIFICATION_TYPE": "U", "NORAD_CAT_ID": 66827, "ELEMENT_SET_NO": 999, "REV_AT_EPOCH": 431, "BSTAR": 0.0004483327, "MEAN_MOTION_DOT": 0.00027486, "MEAN_MOTION_DDOT": 0}, "tle": {"line1": "1 66827U 25280G   25355.58335648  .00027486  00000+0  44833-3 0  9999", "line2": "2 66827  69.9999 174.1805 0003230 267.9005 203.9779 15.52495764  4318"}}, "geometry": {"type": "Point", "coordinates": [-7.655543615810498, 3.4967711081688773]}}, {"type": "Feature", "properties": {"norad_id": 66828, "name": "STARLINK-35982", "group": "last-30-days", "lat": -0.10697932291387642, "lon": -6.3460469116191875, "alt_km": 411.84654223131383, "timestamp": "2025-12-21T18:54:57.224011+00:00", "meta": {"OBJECT_NAME": "STARLINK-35982", "OBJECT_ID": "2025-280H", "EPOCH": "2025-12-21T14:00:01.999872", "MEAN_MOTION": 15.52492652, "ECCENTRICITY": 0.00032211, "INCLINATION": 69.9999, "RA_OF_ASC_NODE": 174.1757, "ARG_OF_PERICENTER": 268.6861, "MEAN_ANOMALY": 207.0284, "EPHEMERIS_TYPE": 0, "CLASSIFICATION_TYPE": "U", "NORAD_CAT_ID": 66828, "ELEMENT_SET_NO": 999, "REV_AT_EPOCH": 431, "BSTAR": 0.00052230451, "MEAN_MOTION_DOT": 0.00032064, "MEAN_MOTION_DDOT": 0}, "tle": {"line1": "1 66828U 25280H   25355.58335648  .00032064  00000+0  52230-3 0  9998", "line2": "2 66828  69.9999 174.1757 0003221 268.6861 207.0284 15.52492652  4312"}}, "geometry": {"type": "Point", "coordinates": [-6.3460469116191875, -0.10697932291387642]}}]}